      2.10          N: GNSS NAV DATA                        RINEX VERSION / TYPE
fic2rin                                 12/09/2023 00:18:04 PGM / RUN BY / DATE
                                                            END OF HEADER
31 23 12  8 18  0  0.0 -.226439442486D-03 -.341060513165D-12  .000000000000D+00
     .260000000000D+02 -.121875000000D+01  .474876923387D-08  .104093493105D+01
     .150874257088D-06  .106320723426D-01  .101123005152D-04  .515365714455D+04
     .496800000000D+06 -.540167093277D-07  .203132689242D+01  .111758708954D-06
     .954023219582D+00  .183093750000D+03  .635633869251D+00 -.811498087867D-08
    -.478948521557D-09  .100000000000D+01  .229100000000D+04  .000000000000D+00
     .240000000000D+01  .000000000000D+00 -.135041773319D-07  .260000000000D+02
     .489600000000D+06  .400000000000D+01
16 23 12  8 18  0  0.0 -.407886691391D-03  .704858393874D-11  .000000000000D+00
     .410000000000D+02  .996562500000D+02  .454554648311D-08 -.545052105939D+00
     .532343983650D-05  .137723163934D-01  .725314021111D-05  .515370207214D+04
     .496800000000D+06  .670552253723D-07 -.313959063849D+01  .210478901863D-06
     .963730899649D+00  .241468750000D+03  .805638334299D+00 -.830748889740D-08
     .105361531588D-09  .100000000000D+01  .229100000000D+04  .000000000000D+00
     .240000000000D+01  .000000000000D+00 -.102445483208D-07  .410000000000D+02
     .489600000000D+06  .400000000000D+01
9  23 12  8 18  0  0.0  .206911936402D-04  .115960574476D-10  .000000000000D+00
     .210000000000D+02 -.115625000000D+02  .501913763866D-08 -.106604694392D+01
    -.670552253723D-06  .296502048150D-02  .587478280067D-05  .515375368118D+04
     .496800000000D+06 -.204890966415D-07  .938110181883D+00  .447034835815D-07
     .957082993205D+00  .270031250000D+03  .199304827304D+01 -.828498796015D-08
     .160720980388D-09  .100000000000D+01  .229100000000D+04  .000000000000D+00
     .240000000000D+01  .000000000000D+00  .139698386192D-08  .210000000000D+02
     .489600000000D+06  .400000000000D+01
7  23 12  8 18  0  0.0 -.682892277837D-05 -.977706804406D-11  .000000000000D+00
     .510000000000D+02 -.167500000000D+02  .481770067657D-08  .188950053806D+01
    -.979751348495D-06  .176864928799D-01  .107157975435D-04  .515369681740D+04
     .496800000000D+06 -.344589352608D-06  .201052808284D+01 -.365078449249D-06
     .949978966460D+00  .170843750000D+03 -.216328255667D+01 -.807426489697D-08
    -.331085219600D-09  .100000000000D+01  .229100000000D+04  .000000000000D+00
     .240000000000D+01  .000000000000D+00 -.111758708954D-07  .510000000000D+02
     .489600000000D+06  .400000000000D+01
30 23 12  8 18  0  0.0 -.459697097540D-03  .432009983342D-11  .000000000000D+00
     .340000000000D+02 -.205625000000D+02  .518985903560D-08  .179815669098D+01
    -.957399606705D-06  .661198946182D-02  .101868063211D-04  .515372831345D+04
     .496800000000D+06 -.160187482834D-06  .201370908848D+01  .447034835815D-07
     .935113757001D+00  .171718750000D+03 -.255259982381D+01 -.832641825731D-08
    -.369658254893D-09  .100000000000D+01  .229100000000D+04  .000000000000D+00
     .240000000000D+01  .000000000000D+00  .372529029846D-08  .340000000000D+02
     .489600000000D+06  .400000000000D+01
15 23 12  8 18  0  0.0  .104944221675D-03  .375166564481D-11  .000000000000D+00
     .310000000000D+02 -.346875000000D+01  .539843915237D-08 -.256690950476D+01
    -.400468707085D-06  .154562416719D-01  .487267971039D-05  .515357429886D+04
     .496800000000D+06  .244006514549D-06  .814629504886D+00  .111758708954D-07
     .933782353795D+00  .265406250000D+03  .127890641645D+01 -.830498879326D-08
     .322513433979D-09  .100000000000D+01  .229100000000D+04  .000000000000D+00
     .240000000000D+01  .000000000000D+00 -.102445483208D-07  .310000000000D+02
     .489600000000D+06  .400000000000D+01
26 23 12  8 18  0  0.0  .210820697248D-03 -.295585778076D-11  .000000000000D+00
     .260000000000D+02  .949062500000D+02  .518950187787D-08  .233261072054D+00
     .505335628986D-05  .866585061885D-02  .807084143162D-05  .515380052567D+04
     .496800000000D+06  .968575477600D-07  .298173718418D+01  .132247805595D-06
     .932700158683D+00  .205906250000D+03  .505376467096D+00 -.848285334489D-08
     .260725145963D-10  .100000000000D+01  .229100000000D+04  .000000000000D+00
     .240000000000D+01  .000000000000D+00  .698491930962D-08  .260000000000D+02
     .489600000000D+06  .400000000000D+01
17 23 12  8 18  0  0.0  .722292810678D-03 -.454747350886D-12  .000000000000D+00
     .230000000000D+02  .940625000000D+01  .461554939902D-08 -.150454557413D+01
     .689178705215D-06  .138127688551D-01  .280328094959D-05  .515362784386D+04
     .496800000000D+06 -.158324837685D-06 -.211851447805D+01  .342726707458D-06
     .971440120975D+00  .335500000000D+03 -.136384924938D+01 -.843177978890D-08
    -.158935191717D-09  .100000000000D+01  .229100000000D+04  .000000000000D+00
     .240000000000D+01  .000000000000D+00 -.111758708954D-07  .230000000000D+02
     .489600000000D+06  .400000000000D+01
12 23 12  8 18  0  0.0 -.455348286778D-03 -.397903932026D-11  .000000000000D+00
     .920000000000D+02  .912187500000D+02  .440696928225D-08  .121380114182D+01
     .461563467979D-05  .879301200621D-02  .822730362415D-05  .515375439835D+04
     .496800000000D+06 -.227242708206D-06  .312554614949D+01 -.763684511185D-07
     .964146080189D+00  .222906250000D+03  .139638059759D+01 -.810819488172D-08
     .932181686252D-10  .100000000000D+01  .229100000000D+04  .000000000000D+00
     .240000000000D+01  .000000000000D+00 -.125728547573D-07  .920000000000D+02
     .489600000000D+06  .400000000000D+01
25 23 12  8 18  0  0.0  .480680726469D-03  .147792889038D-11  .000000000000D+00
     .220000000000D+02  .897812500000D+02  .472519682341D-08  .105496294321D+01
     .474043190479D-05  .115680637537D-01  .878423452377D-05  .515365097809D+04
     .496800000000D+06 -.182539224625D-06  .304100110739D+01  .117346644402D-06
     .951951528625D+00  .206312500000D+03  .105843541773D+01 -.833606151614D-08
    -.785747015231D-11  .100000000000D+01  .229100000000D+04  .000000000000D+00
     .240000000000D+01  .000000000000D+00  .558793544769D-08  .220000000000D+02
     .489600000000D+06  .400000000000D+01
24 23 12  8 18  0  0.0 -.389036256820D-03 -.829913915368D-11  .000000000000D+00
     .990000000000D+02 -.272812500000D+02  .511771317330D-08  .293608827527D+01
    -.152550637722D-05  .149627770297D-01  .938400626183D-05  .515362633705D+04
     .496800000000D+06 -.931322574615D-08  .191644311203D+01 -.212341547012D-06
     .933565582982D+00  .182656250000D+03  .950284150189D+00 -.801640534403D-08
    -.338585532018D-09  .100000000000D+01  .229100000000D+04  .000000000000D+00
     .340000000000D+01  .000000000000D+00  .232830643654D-08  .990000000000D+02
     .489600000000D+06  .400000000000D+01
29 23 12  8 18  0  0.0 -.609914772213D-03  .227373675443D-12  .000000000000D+00
     .910000000000D+02  .412500000000D+01  .446268588878D-08 -.160598396704D+01
     .135973095894D-06  .250590511132D-02  .275112688541D-05  .515367683411D+04
     .496800000000D+06 -.391155481339D-07 -.210393219987D+01 -.614672899246D-07
     .973776813690D+00  .332968750000D+03  .255698058613D+01 -.828534511788D-08
    -.132148361653D-09  .100000000000D+01  .229100000000D+04  .000000000000D+00
     .340000000000D+01  .000000000000D+00 -.102445483208D-07  .910000000000D+02
     .489600000000D+06  .400000000000D+01
22 23 12  8 18  0  0.0  .696307979524D-04 -.682121026330D-11  .000000000000D+00
     .580000000000D+02  .946562500000D+02  .460197740512D-08 -.972087384690D+00
     .492483377457D-05  .148945976980D-01  .838749110699D-05  .515373063278D+04
     .496800000000D+06 -.221654772758D-06 -.313629366587D+01 -.147148966789D-06
     .963013155466D+00  .222750000000D+03 -.115646926087D+01 -.837499170916D-08
     .201794119821D-09  .100000000000D+01  .229100000000D+04  .000000000000D+00
     .340000000000D+01  .000000000000D+00 -.111758708954D-07  .580000000000D+02
     .489600000000D+06  .400000000000D+01
21 23 12  8 18  0  0.0  .142112839967D-03 -.113686837722D-11  .000000000000D+00
     .710000000000D+02 -.810000000000D+02  .432910889619D-08 -.154709565682D+01
    -.421702861786D-05  .250089240726D-01  .873766839504D-05  .515374982071D+04
     .496800000000D+06 -.409781932831D-06 -.122110766861D+01 -.184401869774D-06
     .961726507312D+00  .216468750000D+03 -.672375633201D+00 -.828498796015D-08
    -.153577825704D-10  .100000000000D+01  .229100000000D+04  .000000000000D+00
     .240000000000D+01  .000000000000D+00 -.102445483208D-07  .710000000000D+02
     .489600000000D+06  .400000000000D+01
20 23 12  8 18  0  0.0  .397657509893D-03 -.193267624127D-11  .000000000000D+00
     .112000000000D+03 -.236250000000D+02  .441625538333D-08 -.291210271370D+01
    -.118836760521D-05  .407683721278D-02  .990182161331D-05  .515367336655D+04
     .496800000000D+06 -.242143869400D-07 -.258075802419D+00 -.800937414169D-07
     .951698190713D+00  .181937500000D+03 -.273129436457D+01 -.791675833619D-08
     .374658463172D-09  .100000000000D+01  .229100000000D+04  .000000000000D+00
     .340000000000D+01  .000000000000D+00 -.838190317154D-08  .112000000000D+03
     .489600000000D+06  .400000000000D+01
14 23 12  8 18  0  0.0  .265316572040D-03  .105728759081D-10  .000000000000D+00
     .700000000000D+02  .100312500000D+03  .485663086960D-08  .117762906742D+01
     .525824725628D-05  .372694001999D-02  .846385955811D-05  .515368732071D+04
     .496800000000D+06  .800937414169D-07  .308382399943D+01 -.223517417908D-07
     .947468283046D+00  .207468750000D+03 -.295531841095D+01 -.831570352529D-08
     .514307137242D-10  .100000000000D+01  .229100000000D+04  .000000000000D+00
     .240000000000D+01  .000000000000D+00 -.791624188423D-08  .700000000000D+02
     .489600000000D+06  .400000000000D+01
